{
  "links" : {
    "next" : "https://api.nasa.gov/neo/rest/v1/feed?start_date=2008-02-09&end_date=2008-02-09&detailed=true&api_key=t0TVs3DtDT2H8Oy2Zy8m2eVrNsAVKAexjcZXUckd",
    "prev" : "https://api.nasa.gov/neo/rest/v1/feed?start_date=2008-02-07&end_date=2008-02-07&detailed=true&api_key=t0TVs3DtDT2H8Oy2Zy8m2eVrNsAVKAexjcZXUckd",
    "self" : "https://api.nasa.gov/neo/rest/v1/feed?start_date=2008-02-08&end_date=2008-02-08&detailed=true&api_key=t0TVs3DtDT2H8Oy2Zy8m2eVrNsAVKAexjcZXUckd"
  },
  "element_count" : 9,
  "near_earth_objects" : {
    "2008-02-08" : [ {
      "links" : {
        "self" : "https://api.nasa.gov/neo/rest/v1/neo/3402609?api_key=t0TVs3DtDT2H8Oy2Zy8m2eVrNsAVKAexjcZXUckd"
      },
      "neo_reference_id" : "3402609",
      "name" : "(2008 CG116)",
      "nasa_jpl_url" : "http://ssd.jpl.nasa.gov/sbdb.cgi?sstr=3402609",
      "absolute_magnitude_h" : 24.2,
      "estimated_diameter" : {
        "kilometers" : {
          "estimated_diameter_min" : 0.0384197891,
          "estimated_diameter_max" : 0.0859092601
        },
        "meters" : {
          "estimated_diameter_min" : 38.4197891064,
          "estimated_diameter_max" : 85.9092601232
        },
        "miles" : {
          "estimated_diameter_min" : 0.0238729428,
          "estimated_diameter_max" : 0.0533815229
        },
        "feet" : {
          "estimated_diameter_min" : 126.0491808919,
          "estimated_diameter_max" : 281.8545369825
        }
      },
      "is_potentially_hazardous_asteroid" : false,
      "close_approach_data" : [ {
        "close_approach_date" : "2008-02-08",
        "epoch_date_close_approach" : 1202457600000,
        "relative_velocity" : {
          "kilometers_per_second" : "8.0266489885",
          "kilometers_per_hour" : "28895.9363587072",
          "miles_per_hour" : "17954.8111224423"
        },
        "miss_distance" : {
          "astronomical" : "0.0285680691",
          "lunar" : "11.1129789352",
          "kilometers" : "4273722.5",
          "miles" : "2655568"
        },
        "orbiting_body" : "Earth"
      } ],
      "orbital_data" : {
        "orbit_id" : "6",
        "orbit_determination_date" : "2017-04-06 09:04:23",
        "orbit_uncertainty" : "7",
        "minimum_orbit_intersection" : ".0473655",
        "jupiter_tisserand_invariant" : "3.232",
        "epoch_osculation" : "2458000.5",
        "eccentricity" : ".5818569081543262",
        "semi_major_axis" : "2.455073509493538",
        "inclination" : "5.08235015520728",
        "ascending_node_longitude" : "309.3334213836116",
        "orbital_period" : "1405.060993246276",
        "perihelion_distance" : "1.026572027968037",
        "perihelion_argument" : "198.6328497668938",
        "aphelion_distance" : "3.883574991019038",
        "perihelion_time" : "2457326.930137752018",
        "mean_anomaly" : "172.5798037059103",
        "mean_motion" : ".2562166352424675",
        "equinox" : "J2000"
      }
    }, {
      "links" : {
        "self" : "https://api.nasa.gov/neo/rest/v1/neo/2231134?api_key=t0TVs3DtDT2H8Oy2Zy8m2eVrNsAVKAexjcZXUckd"
      },
      "neo_reference_id" : "2231134",
      "name" : "231134 (2005 TU45)",
      "nasa_jpl_url" : "http://ssd.jpl.nasa.gov/sbdb.cgi?sstr=2231134",
      "absolute_magnitude_h" : 17.1,
      "estimated_diameter" : {
        "kilometers" : {
          "estimated_diameter_min" : 1.0105434154,
          "estimated_diameter_max" : 2.2596437711
        },
        "meters" : {
          "estimated_diameter_min" : 1010.5434154201,
          "estimated_diameter_max" : 2259.643771094
        },
        "miles" : {
          "estimated_diameter_min" : 0.6279223726,
          "estimated_diameter_max" : 1.4040771097
        },
        "feet" : {
          "estimated_diameter_min" : 3315.4312590467,
          "estimated_diameter_max" : 7413.5296699562
        }
      },
      "is_potentially_hazardous_asteroid" : false,
      "close_approach_data" : [ {
        "close_approach_date" : "2008-02-08",
        "epoch_date_close_approach" : 1202457600000,
        "relative_velocity" : {
          "kilometers_per_second" : "15.4953211376",
          "kilometers_per_hour" : "55783.1560954914",
          "miles_per_hour" : "34661.4838527791"
        },
        "miss_distance" : {
          "astronomical" : "0.3232911495",
          "lunar" : "125.7602615356",
          "kilometers" : "48363668",
          "miles" : "30051790"
        },
        "orbiting_body" : "Earth"
      } ],
      "orbital_data" : {
        "orbit_id" : "128",
        "orbit_determination_date" : "2017-04-06 09:25:07",
        "orbit_uncertainty" : "0",
        "minimum_orbit_intersection" : ".257022",
        "jupiter_tisserand_invariant" : "3.576",
        "epoch_osculation" : "2458000.5",
        "eccentricity" : ".4955796587616148",
        "semi_major_axis" : "1.974222221842457",
        "inclination" : "28.54088360006532",
        "ascending_node_longitude" : "120.1718927894484",
        "orbital_period" : "1013.193700457119",
        "perihelion_distance" : ".9958378468221752",
        "perihelion_argument" : "76.91361326161251",
        "aphelion_distance" : "2.952606596862739",
        "perihelion_time" : "2457607.318293260199",
        "mean_anomaly" : "139.7022251149686",
        "mean_motion" : ".3553121183418136",
        "equinox" : "J2000"
      }
    }, {
      "links" : {
        "self" : "https://api.nasa.gov/neo/rest/v1/neo/2413260?api_key=t0TVs3DtDT2H8Oy2Zy8m2eVrNsAVKAexjcZXUckd"
      },
      "neo_reference_id" : "2413260",
      "name" : "413260 (2003 TL4)",
      "nasa_jpl_url" : "http://ssd.jpl.nasa.gov/sbdb.cgi?sstr=2413260",
      "absolute_magnitude_h" : 19.4,
      "estimated_diameter" : {
        "kilometers" : {
          "estimated_diameter_min" : 0.3503926411,
          "estimated_diameter_max" : 0.7835017643
        },
        "meters" : {
          "estimated_diameter_min" : 350.3926411083,
          "estimated_diameter_max" : 783.5017643338
        },
        "miles" : {
          "estimated_diameter_min" : 0.2177238258,
          "estimated_diameter_max" : 0.4868452748
        },
        "feet" : {
          "estimated_diameter_min" : 1149.5821926537,
          "estimated_diameter_max" : 2570.543928497
        }
      },
      "is_potentially_hazardous_asteroid" : true,
      "close_approach_data" : [ {
        "close_approach_date" : "2008-02-08",
        "epoch_date_close_approach" : 1202457600000,
        "relative_velocity" : {
          "kilometers_per_second" : "16.5762889072",
          "kilometers_per_hour" : "59674.64006601",
          "miles_per_hour" : "37079.5006565716"
        },
        "miss_distance" : {
          "astronomical" : "0.4888262608",
          "lunar" : "190.153427124",
          "kilometers" : "73127368",
          "miles" : "45439240"
        },
        "orbiting_body" : "Earth"
      } ],
      "orbital_data" : {
        "orbit_id" : "67",
        "orbit_determination_date" : "2017-04-06 09:21:34",
        "orbit_uncertainty" : "0",
        "minimum_orbit_intersection" : ".0249707",
        "jupiter_tisserand_invariant" : "7.398",
        "epoch_osculation" : "2458000.5",
        "eccentricity" : ".3815149390777431",
        "semi_major_axis" : ".7765954143905196",
        "inclination" : "12.18548022658475",
        "ascending_node_longitude" : "220.0651000423994",
        "orbital_period" : "249.9715939983711",
        "perihelion_distance" : ".4803126621812659",
        "perihelion_argument" : "321.9415922657562",
        "aphelion_distance" : "1.072878166599773",
        "perihelion_time" : "2458020.891827457756",
        "mean_anomaly" : "330.6324316000475",
        "mean_motion" : "1.440163637162492",
        "equinox" : "J2000"
      }
    } ]
  }
}